SUOMI-100               
1 43804U 18099AY  26068.68271181  .00014037  00000+0  54773-3 0  9995
2 43804  97.4315 129.5602 0008969 269.9465  90.0745 15.25995383398238
STARLINK-31241          
1 59045U 24038Y   26068.28492213  .00000945  00000+0  43846-4 0  9999
2 59045  43.0030  26.0795 0001613 256.1109 103.9563 15.27585159114796
